ORBCOMM-X               
1 21576U 91050C   24218.18503463  .00000861  00000+0  27221-3 0  9994
2 21576  98.3872 284.6161 0004786  70.7068 289.4639 14.42623504736762
ORBCOMM FM01            
1 23545U 95017A   24218.17514337  .00013218  00000+0  16915-2 0  9997
2 23545  69.9675 137.5272 0002899 106.8192 253.3276 14.81464975565907
ORBCOMM FM02            
1 23546U 95017B   24218.22486608  .00013672  00000+0  17627-2 0  9998
2 23546  69.9691 156.9642 0004358  85.1542 275.0105 14.81139505565508
ORBCOMM FM08            
1 25112U 97084A   24218.84833823  .00002888  00000+0  89504-3 0  9999
2 25112  45.0146  78.8716 0007659  98.2457 261.9262 14.43073708395947
ORBCOMM FM10            
1 25113U 97084B   24218.09984988  .00005043  00000+0  15340-2 0  9998
2 25113  45.0156  84.3812 0005283  65.6186 294.5215 14.42969825395826
ORBCOMM FM11            
1 25114U 97084C   24218.88807787  .00003563  00000+0  10998-2 0  9996
2 25114  45.0140  80.7607 0006062  70.0923 290.0580 14.42823931395921
ORBCOMM FM12            
1 25115U 97084D   24218.85012588  .00003099  00000+0  96328-3 0  9997
2 25115  45.0147  80.6686 0005099  70.6793 289.4608 14.42783858395921
ORBCOMM FM09            
1 25116U 97084E   24218.79438881  .00002930  00000+0  91359-3 0  9991
2 25116  45.0153  81.6479 0006054  55.2071 304.9348 14.42747015395918
